{
  "links" : {
    "next" : "https://api.nasa.gov/neo/rest/v1/feed?start_date=2005-03-23&end_date=2005-03-23&detailed=true&api_key=t0TVs3DtDT2H8Oy2Zy8m2eVrNsAVKAexjcZXUckd",
    "prev" : "https://api.nasa.gov/neo/rest/v1/feed?start_date=2005-03-21&end_date=2005-03-21&detailed=true&api_key=t0TVs3DtDT2H8Oy2Zy8m2eVrNsAVKAexjcZXUckd",
    "self" : "https://api.nasa.gov/neo/rest/v1/feed?start_date=2005-03-22&end_date=2005-03-22&detailed=true&api_key=t0TVs3DtDT2H8Oy2Zy8m2eVrNsAVKAexjcZXUckd"
  },
  "element_count" : 9,
  "near_earth_objects" : {
    "2005-03-22" : [ {
      "links" : {
        "self" : "https://api.nasa.gov/neo/rest/v1/neo/3274305?api_key=t0TVs3DtDT2H8Oy2Zy8m2eVrNsAVKAexjcZXUckd"
      },
      "neo_reference_id" : "3274305",
      "name" : "(2005 EZ169)",
      "nasa_jpl_url" : "http://ssd.jpl.nasa.gov/sbdb.cgi?sstr=3274305",
      "absolute_magnitude_h" : 25.3,
      "estimated_diameter" : {
        "kilometers" : {
          "estimated_diameter_min" : 0.0231502122,
          "estimated_diameter_max" : 0.0517654482
        },
        "meters" : {
          "estimated_diameter_min" : 23.150212221,
          "estimated_diameter_max" : 51.7654482198
        },
        "miles" : {
          "estimated_diameter_min" : 0.0143848705,
          "estimated_diameter_max" : 0.0321655483
        },
        "feet" : {
          "estimated_diameter_min" : 75.9521422633,
          "estimated_diameter_max" : 169.8341531374
        }
      },
      "is_potentially_hazardous_asteroid" : false,
      "close_approach_data" : [ {
        "close_approach_date" : "2005-03-22",
        "epoch_date_close_approach" : 1111478400000,
        "relative_velocity" : {
          "kilometers_per_second" : "3.1308446205",
          "kilometers_per_hour" : "11271.0406337226",
          "miles_per_hour" : "7003.3863315484"
        },
        "miss_distance" : {
          "astronomical" : "0.0495805384",
          "lunar" : "19.2868289948",
          "kilometers" : "7417143",
          "miles" : "4608799"
        },
        "orbiting_body" : "Earth"
      } ],
      "orbital_data" : {
        "orbit_id" : "11",
        "orbit_determination_date" : "2017-04-06 09:11:15",
        "orbit_uncertainty" : "7",
        "minimum_orbit_intersection" : ".0409764",
        "jupiter_tisserand_invariant" : "4.933",
        "epoch_osculation" : "2458000.5",
        "eccentricity" : ".2153964017813232",
        "semi_major_axis" : "1.31687940621175",
        "inclination" : "2.744455464803272",
        "ascending_node_longitude" : "175.8538198539209",
        "orbital_period" : "551.9724934546871",
        "perihelion_distance" : "1.033228320533814",
        "perihelion_argument" : "353.5510908013318",
        "aphelion_distance" : "1.600530491889687",
        "perihelion_time" : "2457854.009292530201",
        "mean_anomaly" : "95.54217884854951",
        "mean_motion" : ".6522064129442954",
        "equinox" : "J2000"
      }
    }, {
      "links" : {
        "self" : "https://api.nasa.gov/neo/rest/v1/neo/3451789?api_key=t0TVs3DtDT2H8Oy2Zy8m2eVrNsAVKAexjcZXUckd"
      },
      "neo_reference_id" : "3451789",
      "name" : "(2009 FE)",
      "nasa_jpl_url" : "http://ssd.jpl.nasa.gov/sbdb.cgi?sstr=3451789",
      "absolute_magnitude_h" : 21.3,
      "estimated_diameter" : {
        "kilometers" : {
          "estimated_diameter_min" : 0.1460679643,
          "estimated_diameter_max" : 0.3266178974
        },
        "meters" : {
          "estimated_diameter_min" : 146.0679642714,
          "estimated_diameter_max" : 326.6178974458
        },
        "miles" : {
          "estimated_diameter_min" : 0.090762397,
          "estimated_diameter_max" : 0.2029508896
        },
        "feet" : {
          "estimated_diameter_min" : 479.2256199,
          "estimated_diameter_max" : 1071.581062656
        }
      },
      "is_potentially_hazardous_asteroid" : true,
      "close_approach_data" : [ {
        "close_approach_date" : "2005-03-22",
        "epoch_date_close_approach" : 1111478400000,
        "relative_velocity" : {
          "kilometers_per_second" : "22.3925735178",
          "kilometers_per_hour" : "80613.2646639698",
          "miles_per_hour" : "50089.9477018984"
        },
        "miss_distance" : {
          "astronomical" : "0.4378982105",
          "lunar" : "170.3424072266",
          "kilometers" : "65508640",
          "miles" : "40705184"
        },
        "orbiting_body" : "Earth"
      } ],
      "orbital_data" : {
        "orbit_id" : "25",
        "orbit_determination_date" : "2017-04-06 09:01:02",
        "orbit_uncertainty" : "0",
        "minimum_orbit_intersection" : ".00157437",
        "jupiter_tisserand_invariant" : "3.158",
        "epoch_osculation" : "2458000.5",
        "eccentricity" : ".6103356820481181",
        "semi_major_axis" : "2.535018325758817",
        "inclination" : "1.90768281902402",
        "ascending_node_longitude" : "39.82531371158913",
        "orbital_period" : "1474.246419537318",
        "perihelion_distance" : ".987806186902331",
        "perihelion_argument" : "201.0274473634212",
        "aphelion_distance" : "4.082230464615303",
        "perihelion_time" : "2457909.842361672028",
        "mean_anomaly" : "22.13792034055782",
        "mean_motion" : ".244192555077043",
        "equinox" : "J2000"
      }
    }, {
      "links" : {
        "self" : "https://api.nasa.gov/neo/rest/v1/neo/3599935?api_key=t0TVs3DtDT2H8Oy2Zy8m2eVrNsAVKAexjcZXUckd"
      },
      "neo_reference_id" : "3599935",
      "name" : "(2012 DZ32)",
      "nasa_jpl_url" : "http://ssd.jpl.nasa.gov/sbdb.cgi?sstr=3599935",
      "absolute_magnitude_h" : 21.6,
      "estimated_diameter" : {
        "kilometers" : {
          "estimated_diameter_min" : 0.1272198785,
          "estimated_diameter_max" : 0.2844722965
        },
        "meters" : {
          "estimated_diameter_min" : 127.2198785394,
          "estimated_diameter_max" : 284.4722965033
        },
        "miles" : {
          "estimated_diameter_min" : 0.0790507431,
          "estimated_diameter_max" : 0.1767628354
        },
        "feet" : {
          "estimated_diameter_min" : 417.3880663071,
          "estimated_diameter_max" : 933.3080892598
        }
      },
      "is_potentially_hazardous_asteroid" : false,
      "close_approach_data" : [ {
        "close_approach_date" : "2005-03-22",
        "epoch_date_close_approach" : 1111478400000,
        "relative_velocity" : {
          "kilometers_per_second" : "4.1256708068",
          "kilometers_per_hour" : "14852.4149046281",
          "miles_per_hour" : "9228.7130278229"
        },
        "miss_distance" : {
          "astronomical" : "0.2515774932",
          "lunar" : "97.8636474609",
          "kilometers" : "37635460",
          "miles" : "23385590"
        },
        "orbiting_body" : "Earth"
      } ],
      "orbital_data" : {
        "orbit_id" : "18",
        "orbit_determination_date" : "2017-04-06 08:50:45",
        "orbit_uncertainty" : "6",
        "minimum_orbit_intersection" : ".248396",
        "jupiter_tisserand_invariant" : "3.426",
        "epoch_osculation" : "2458000.5",
        "eccentricity" : ".4685485075683496",
        "semi_major_axis" : "2.30171686698989",
        "inclination" : "7.384237389164341",
        "ascending_node_longitude" : "40.32280874455425",
        "orbital_period" : "1275.487706823359",
        "perihelion_distance" : "1.22325086411688",
        "perihelion_argument" : "133.2892507259169",
        "aphelion_distance" : "3.380182869862901",
        "perihelion_time" : "2458551.290235608531",
        "mean_anomaly" : "204.5422219608023",
        "mean_motion" : ".282244978194726",
        "equinox" : "J2000"
      }
    } ]
  }
}